[{"OBJECT_NAME":"OBJECT AA","OBJECT_ID":"2026-040AA","EPOCH":"2026-03-05T18:00:00.998784","MEAN_MOTION":16.13322897,"ECCENTRICITY":0.0001565,"INCLINATION":97.2849,"RA_OF_ASC_NODE":12.528,"ARG_OF_PERICENTER":70.3471,"MEAN_ANOMALY":302.8134,"EPHEMERIS_TYPE":0,"CLASSIFICATION_TYPE":"U","NORAD_CAT_ID":68038,"ELEMENT_SET_NO":999,"REV_AT_EPOCH":178,"BSTAR":-0.00050494,"MEAN_MOTION_DOT":-0.00584576,"MEAN_MOTION_DDOT":0.00014308},{"OBJECT_NAME":"OBJECT AB","OBJECT_ID":"2026-040AB","EPOCH":"2026-03-05T18:00:00.998784","MEAN_MOTION":16.13214944,"ECCENTRICITY":0.0001651,"INCLINATION":97.2848,"RA_OF_ASC_NODE":12.5278,"ARG_OF_PERICENTER":55.9516,"MEAN_ANOMALY":316.3424,"EPHEMERIS_TYPE":0,"CLASSIFICATION_TYPE":"U","NORAD_CAT_ID":68039,"ELEMENT_SET_NO":999,"REV_AT_EPOCH":173,"BSTAR":-0.00055221,"MEAN_MOTION_DOT":-0.00634322,"MEAN_MOTION_DDOT":0.00016629},{"OBJECT_NAME":"OBJECT A","OBJECT_ID":"2026-041A","EPOCH":"2026-03-05T18:00:00.998784","MEAN_MOTION":16.02465387,"ECCENTRICITY":4.86e-5,"INCLINATION":53.161,"RA_OF_ASC_NODE":82.5031,"ARG_OF_PERICENTER":76.4509,"MEAN_ANOMALY":32.7832,"EPHEMERIS_TYPE":0,"CLASSIFICATION_TYPE":"U","NORAD_CAT_ID":68040,"ELEMENT_SET_NO":999,"REV_AT_EPOCH":174,"BSTAR":-0.0021592,"MEAN_MOTION_DOT":-0.01306345,"MEAN_MOTION_DDOT":0.00055442},{"OBJECT_NAME":"OBJECT B","OBJECT_ID":"2026-041B","EPOCH":"2026-03-05T18:00:00.998784","MEAN_MOTION":16.02692333,"ECCENTRICITY":4.67e-5,"INCLINATION":53.1608,"RA_OF_ASC_NODE":82.5,"ARG_OF_PERICENTER":64.9767,"MEAN_ANOMALY":45.6118,"EPHEMERIS_TYPE":0,"CLASSIFICATION_TYPE":"U","NORAD_CAT_ID":68041,"ELEMENT_SET_NO":999,"REV_AT_EPOCH":174,"BSTAR":-0.00212,"MEAN_MOTION_DOT":-0.01300075,"MEAN_MOTION_DDOT":0.00055097},{"OBJECT_NAME":"OBJECT C","OBJECT_ID":"2026-041C","EPOCH":"2026-03-05T18:00:00.998784","MEAN_MOTION":16.02600863,"ECCENTRICITY":6.77e-5,"INCLINATION":53.1609,"RA_OF_ASC_NODE":82.5016,"ARG_OF_PERICENTER":50.2893,"MEAN_ANOMALY":59.6451,"EPHEMERIS_TYPE":0,"CLASSIFICATION_TYPE":"U","NORAD_CAT_ID":68042,"ELEMENT_SET_NO":999,"REV_AT_EPOCH":174,"BSTAR":-0.0021675,"MEAN_MOTION_DOT":-0.01321759,"MEAN_MOTION_DDOT":0.00056727},{"OBJECT_NAME":"OBJECT D","OBJECT_ID":"2026-041D","EPOCH":"2026-03-05T18:00:00.998784","MEAN_MOTION":16.02775035,"ECCENTRICITY":6.67e-5,"INCLINATION":53.161,"RA_OF_ASC_NODE":82.4987,"ARG_OF_PERICENTER":58.7237,"MEAN_ANOMALY":52.4742,"EPHEMERIS_TYPE":0,"CLASSIFICATION_TYPE":"U","NORAD_CAT_ID":68043,"ELEMENT_SET_NO":999,"REV_AT_EPOCH":174,"BSTAR":-0.0021036,"MEAN_MOTION_DOT":-0.01296373,"MEAN_MOTION_DDOT":0.00054862},{"OBJECT_NAME":"OBJECT E","OBJECT_ID":"2026-041E","EPOCH":"2026-03-05T18:00:00.998784","MEAN_MOTION":16.03009336,"ECCENTRICITY":7.76e-5,"INCLINATION":53.161,"RA_OF_ASC_NODE":82.496,"ARG_OF_PERICENTER":61.7631,"MEAN_ANOMALY":50.8043,"EPHEMERIS_TYPE":0,"CLASSIFICATION_TYPE":"U","NORAD_CAT_ID":68044,"ELEMENT_SET_NO":999,"REV_AT_EPOCH":174,"BSTAR":-0.0020682,"MEAN_MOTION_DOT":-0.01292504,"MEAN_MOTION_DDOT":0.00054708},{"OBJECT_NAME":"OBJECT F","OBJECT_ID":"2026-041F","EPOCH":"2026-03-05T18:00:00.998784","MEAN_MOTION":16.02905921,"ECCENTRICITY":5.36e-5,"INCLINATION":53.161,"RA_OF_ASC_NODE":82.4974,"ARG_OF_PERICENTER":81.4129,"MEAN_ANOMALY":30.5416,"EPHEMERIS_TYPE":0,"CLASSIFICATION_TYPE":"U","NORAD_CAT_ID":68045,"ELEMENT_SET_NO":999,"REV_AT_EPOCH":174,"BSTAR":-0.0020588,"MEAN_MOTION_DOT":-0.01278885,"MEAN_MOTION_DDOT":0.000536},{"OBJECT_NAME":"OBJECT H","OBJECT_ID":"2026-041H","EPOCH":"2026-03-05T18:00:00.998784","MEAN_MOTION":16.03118384,"ECCENTRICITY":6.38e-5,"INCLINATION":53.161,"RA_OF_ASC_NODE":82.4948,"ARG_OF_PERICENTER":59.5012,"MEAN_ANOMALY":53.7566,"EPHEMERIS_TYPE":0,"CLASSIFICATION_TYPE":"U","NORAD_CAT_ID":68047,"ELEMENT_SET_NO":999,"REV_AT_EPOCH":162,"BSTAR":-0.0020394,"MEAN_MOTION_DOT":-0.01282909,"MEAN_MOTION_DDOT":0.00054037},{"OBJECT_NAME":"OBJECT J","OBJECT_ID":"2026-041J","EPOCH":"2026-03-05T18:00:00.998784","MEAN_MOTION":16.03343244,"ECCENTRICITY":5.59e-5,"INCLINATION":53.1611,"RA_OF_ASC_NODE":82.4919,"ARG_OF_PERICENTER":57.4481,"MEAN_ANOMALY":57.1477,"EPHEMERIS_TYPE":0,"CLASSIFICATION_TYPE":"U","NORAD_CAT_ID":68048,"ELEMENT_SET_NO":999,"REV_AT_EPOCH":174,"BSTAR":-0.0020228,"MEAN_MOTION_DOT":-0.01289554,"MEAN_MOTION_DDOT":0.00054687},{"OBJECT_NAME":"OBJECT K","OBJECT_ID":"2026-041K","EPOCH":"2026-03-05T18:00:00.998784","MEAN_MOTION":16.03598751,"ECCENTRICITY":8.62e-5,"INCLINATION":53.161,"RA_OF_ASC_NODE":82.4888,"ARG_OF_PERICENTER":57.1119,"MEAN_ANOMALY":58.9395,"EPHEMERIS_TYPE":0,"CLASSIFICATION_TYPE":"U","NORAD_CAT_ID":68049,"ELEMENT_SET_NO":999,"REV_AT_EPOCH":174,"BSTAR":-0.0019665,"MEAN_MOTION_DOT":-0.01273267,"MEAN_MOTION_DDOT":0.0005359},{"OBJECT_NAME":"OBJECT L","OBJECT_ID":"2026-041L","EPOCH":"2026-03-05T18:00:00.998784","MEAN_MOTION":16.03476725,"ECCENTRICITY":5.26e-5,"INCLINATION":53.161,"RA_OF_ASC_NODE":82.4904,"ARG_OF_PERICENTER":58.9104,"MEAN_ANOMALY":56.4216,"EPHEMERIS_TYPE":0,"CLASSIFICATION_TYPE":"U","NORAD_CAT_ID":68050,"ELEMENT_SET_NO":999,"REV_AT_EPOCH":174,"BSTAR":-0.0019946,"MEAN_MOTION_DOT":-0.01281893,"MEAN_MOTION_DDOT":0.00054178},{"OBJECT_NAME":"OBJECT M","OBJECT_ID":"2026-041M","EPOCH":"2026-03-05T18:00:00.998784","MEAN_MOTION":16.03732512,"ECCENTRICITY":7.32e-5,"INCLINATION":53.1611,"RA_OF_ASC_NODE":82.4876,"ARG_OF_PERICENTER":65.4609,"MEAN_ANOMALY":51.3501,"EPHEMERIS_TYPE":0,"CLASSIFICATION_TYPE":"U","NORAD_CAT_ID":68051,"ELEMENT_SET_NO":999,"REV_AT_EPOCH":170,"BSTAR":-0.0019383,"MEAN_MOTION_DOT":-0.01265236,"MEAN_MOTION_DDOT":0.00053056},{"OBJECT_NAME":"OBJECT N","OBJECT_ID":"2026-041N","EPOCH":"2026-03-05T18:00:00.998784","MEAN_MOTION":16.03845975,"ECCENTRICITY":6.78e-5,"INCLINATION":53.1609,"RA_OF_ASC_NODE":82.4859,"ARG_OF_PERICENTER":60.1801,"MEAN_ANOMALY":57.3067,"EPHEMERIS_TYPE":0,"CLASSIFICATION_TYPE":"U","NORAD_CAT_ID":68052,"ELEMENT_SET_NO":999,"REV_AT_EPOCH":170,"BSTAR":-0.0019165,"MEAN_MOTION_DOT":-0.01259639,"MEAN_MOTION_DDOT":0.00052698},{"OBJECT_NAME":"OBJECT P","OBJECT_ID":"2026-041P","EPOCH":"2026-03-05T18:00:00.998784","MEAN_MOTION":16.03973065,"ECCENTRICITY":6.71e-5,"INCLINATION":53.161,"RA_OF_ASC_NODE":82.4845,"ARG_OF_PERICENTER":63.2933,"MEAN_ANOMALY":54.9294,"EPHEMERIS_TYPE":0,"CLASSIFICATION_TYPE":"U","NORAD_CAT_ID":68053,"ELEMENT_SET_NO":999,"REV_AT_EPOCH":174,"BSTAR":-0.0018966,"MEAN_MOTION_DOT":-0.01256147,"MEAN_MOTION_DDOT":0.00052508},{"OBJECT_NAME":"OBJECT Q","OBJECT_ID":"2026-041Q","EPOCH":"2026-03-05T18:00:00.998784","MEAN_MOTION":16.0419016,"ECCENTRICITY":7.95e-5,"INCLINATION":53.161,"RA_OF_ASC_NODE":82.4819,"ARG_OF_PERICENTER":58.4751,"MEAN_ANOMALY":61.0632,"EPHEMERIS_TYPE":0,"CLASSIFICATION_TYPE":"U","NORAD_CAT_ID":68054,"ELEMENT_SET_NO":999,"REV_AT_EPOCH":174,"BSTAR":-0.0018706,"MEAN_MOTION_DOT":-0.01255284,"MEAN_MOTION_DDOT":0.00052573}]
