OBJECT AA               
1 68038U 26040AA  26064.75001157 -.00584576  14308-3 -50494-3 0  9992
2 68038  97.2849  12.5280 0001565  70.3471 302.8134 16.13322897  1782
OBJECT AB               
1 68039U 26040AB  26064.75001157 -.00634322  16629-3 -55221-3 0  9999
2 68039  97.2848  12.5278 0001651  55.9516 316.3424 16.13214944  1734
OBJECT A                
1 68040U 26041A   26064.75001157 -.01306345  55442-3 -21592-2 0  9993
2 68040  53.1610  82.5031 0000485  76.4509  32.7832 16.02465388  1743
OBJECT B                
1 68041U 26041B   26064.75001157 -.01300075  55097-3 -21200-2 0  9990
2 68041  53.1608  82.5000 0000466  64.9767  45.6118 16.02692333  1746
OBJECT C                
1 68042U 26041C   26064.75001157 -.01321759  56727-3 -21675-2 0  9990
2 68042  53.1609  82.5016 0000677  50.2893  59.6451 16.02600863  1749
OBJECT D                
1 68043U 26041D   26064.75001157 -.01296373  54862-3 -21036-2 0  9993
2 68043  53.1610  82.4987 0000667  58.7237  52.4742 16.02775035  1740
OBJECT E                
1 68044U 26041E   26064.75001157 -.01292504  54708-3 -20682-2 0  9991
2 68044  53.1610  82.4960 0000775  61.7631  50.8043 16.03009336  1745
OBJECT F                
1 68045U 26041F   26064.75001157 -.01278885  53600-3 -20588-2 0  9993
2 68045  53.1610  82.4974 0000535  81.4129  30.5416 16.02905921  1749
OBJECT H                
1 68047U 26041H   26064.75001157 -.01282909  54037-3 -20394-2 0  9997
2 68047  53.1610  82.4948 0000637  59.5012  53.7566 16.03118384  1622
OBJECT J                
1 68048U 26041J   26064.75001157 -.01289554  54687-3 -20228-2 0  9998
2 68048  53.1611  82.4919 0000559  57.4481  57.1477 16.03343244  1749
OBJECT K                
1 68049U 26041K   26064.75001157 -.01273267  53590-3 -19665-2 0  9998
2 68049  53.1610  82.4888 0000862  57.1119  58.9395 16.03598751  1749
OBJECT L                
1 68050U 26041L   26064.75001157 -.01281893  54178-3 -19946-2 0  9999
2 68050  53.1610  82.4904 0000525  58.9104  56.4216 16.03476725  1740
OBJECT M                
1 68051U 26041M   26064.75001157 -.01265236  53056-3 -19383-2 0  9992
2 68051  53.1611  82.4876 0000732  65.4609  51.3501 16.03732512  1709
OBJECT N                
1 68052U 26041N   26064.75001157 -.01259639  52698-3 -19165-2 0  9992
2 68052  53.1609  82.4859 0000678  60.1801  57.3067 16.03845975  1704
OBJECT P                
1 68053U 26041P   26064.75001157 -.01256147  52508-3 -18966-2 0  9992
2 68053  53.1610  82.4845 0000671  63.2933  54.9294 16.03973065  1746
OBJECT Q                
1 68054U 26041Q   26064.75001157 -.01255284  52573-3 -18706-2 0  9998
2 68054  53.1610  82.4819 0000794  58.4751  61.0632 16.04190160  1741
